ALOS-4 (DAICHI-4)       
1 60182U 24123A   24272.54016953  .00005753  00000+0  77657-3 0  9993
2 60182  97.9214   7.7109 0001374  94.8337 265.3031 14.79475167 13223
